{"lat":49.2687365,"lon":-123.0457293,"timestamp":"2018-05-06T06:20:16.000-07:00","amenity":"restaurant","tags":{"opening_hours":"Tu-Sa 11:30-21:00; Su 12:00-21:00","level":"0"},"name":"Fuku Ramen","dist":0.0}
{"lat":49.2040556,"lon":-123.134982,"timestamp":"2018-08-22T07:00:56.000-07:00","amenity":"cafe","tags":{"addr:province":"BC","addr:housenumber":"1300","addr:street":"West 73rd Avenue","addr:city":"Vancouver"},"name":"Wick's Cafe","dist":0.0}
{"lat":49.2041123,"lon":-123.1353971,"timestamp":"2018-08-22T07:00:56.000-07:00","amenity":"restaurant","tags":{"addr:province":"BC","addr:housenumber":"1320","addr:street":"West 73rd Avenue","addr:city":"Vancouver"},"name":"Cafe de l'Orangerie","dist":0.0308003105}
{"lat":49.2457903,"lon":-122.8916363,"timestamp":"2018-05-05T21:21:46.000-07:00","amenity":"restaurant","tags":{"cuisine":"vietnamese"},"name":"Pho 99","dist":0.0001133739}
{"lat":49.2457299,"lon":-122.891401,"timestamp":"2018-05-05T21:21:46.000-07:00","amenity":"restaurant","tags":{"cuisine":"korean"},"name":"Insadong","dist":0.0184291106}
{"lat":49.235221,"lon":-123.1157169,"timestamp":"2018-12-14T09:20:00.000-08:00","amenity":"cafe","tags":{"addr:province":"BC","name:fr":"Starbucks","addr:housenumber":"5504","addr:street":"Cambie Street","addr:city":"Vancouver"},"name":"Starbucks","dist":0.0001680047}
{"lat":49.2110159,"lon":-123.1401483,"timestamp":"2018-08-22T07:00:55.000-07:00","amenity":"restaurant","tags":{"addr:province":"BC","addr:housenumber":"8298","addr:street":"Granville Street","addr:city":"Vancouver"},"name":"Red Star Seafood Restaurant","dist":0.0273530683}
{"lat":49.2116748,"lon":-123.1401802,"timestamp":"2018-08-22T07:00:55.000-07:00","amenity":"restaurant","tags":{"addr:province":"BC","addr:housenumber":"8176","addr:street":"Granville Street","addr:city":"Vancouver"},"name":"Sushi King House","dist":0.0486205014}
{"lat":49.2632231,"lon":-123.1389199,"timestamp":"2019-06-09T12:48:19.000-07:00","amenity":"cafe","tags":{"brand:wikidata":"Q37158","brand:wikipedia":"en:Starbucks","opening_hours":"Mo-Fr 05:30-22:00; Sa,Su,PH 07:30-22:00","cuisine":"coffee_shop","takeaway":"yes","brand":"Starbucks"},"name":"Starbucks","dist":0.0482412001}
{"lat":49.2630031,"lon":-123.1383472,"timestamp":"2019-07-18T18:57:32.000-07:00","amenity":"restaurant","tags":{"addr:province":"BC","addr:housenumber":"2566","phone":"+16047399440","opening_hours":"Mo-Sa 11:30-22:00 Su 12:30-9:30","cuisine":"sushi;japanese","outdoor_seating":"yes","addr:street":"Granville Street","addr:postcode":"V6H3G8","takeaway":"yes","addr:city":"Vancouver"},"name":"Sushi Van","dist":0.0}